{"type": "FeatureCollection", "features": [ {"type": "Feature", "properties": {"norad_id": 44476, "name": "INTELSAT 39 (IS-39)", "group": "intelsat", "lat": 0.033882428788090765, "lon": 65.9392829557554, "alt_km": 35786.066784152805, "timestamp": "2025-12-10T18:56:59.729967+00:00", "meta": {"OBJECT_NAME": "INTELSAT 39 (IS-39)", "OBJECT_ID": "2019-049B", "EPOCH": "2025-12-10T00:53:38.582304", "MEAN_MOTION": 1.0027051, "ECCENTRICITY": 9.575e-05, "INCLINATION": 0.0171, "RA_OF_ASC_NODE": 322.3711, "ARG_OF_PERICENTER": 189.1323, "MEAN_ANOMALY": 2.8736, "EPHEMERIS_TYPE": 0, "CLASSIFICATION_TYPE": "U", "NORAD_CAT_ID": 44476, "ELEMENT_SET_NO": 999, "REV_AT_EPOCH": 2323, "BSTAR": 0, "MEAN_MOTION_DOT": 3.7e-07, "MEAN_MOTION_DDOT": 0}, "tle": {"line1": "1 44476U 19049B   25344.03725211  .00000037  00000+0  00000+0 0  9995", "line2": "2 44476   0.0171 322.3711 0000957 189.1323   2.8736  1.00270510 23235"}}, "geometry": {"type": "Point", "coordinates": [65.9392829557554, 0.033882428788090765]}}, {"type": "Feature", "properties": {"norad_id": 46114, "name": "GALAXY 30 (G-30)", "group": "intelsat", "lat": -0.03497663382574271, "lon": -121.00631684464817, "alt_km": 35776.69064597313, "timestamp": "2025-12-10T18:56:59.729978+00:00", "meta": {"OBJECT_NAME": "GALAXY 30 (G-30)", "OBJECT_ID": "2020-056C", "EPOCH": "2025-12-10T10:25:19.290720", "MEAN_MOTION": 1.00272067, "ECCENTRICITY": 0.0002344, "INCLINATION": 0.017, "RA_OF_ASC_NODE": 325.7585, "ARG_OF_PERICENTER": 293.7361, "MEAN_ANOMALY": 211.2428, "EPHEMERIS_TYPE": 0, "CLASSIFICATION_TYPE": "U", "NORAD_CAT_ID": 46114, "ELEMENT_SET_NO": 999, "REV_AT_EPOCH": 1940, "BSTAR": 0, "MEAN_MOTION_DOT": 4.1e-07, "MEAN_MOTION_DDOT": 0}, "tle": {"line1": "1 46114U 20056C   25344.43425105  .00000041  00000+0  00000+0 0  9994", "line2": "2 46114   0.0170 325.7585 0002344 293.7361 211.2428  1.00272067 19404"}}, "geometry": {"type": "Point", "coordinates": [-121.00631684464817, -0.03497663382574271]}}, {"type": "Feature", "properties": {"norad_id": 54026, "name": "GALAXY 33 (G-33)", "group": "intelsat", "lat": -0.026754319333916574, "lon": -128.9943825561538, "alt_km": 35777.04568919202, "timestamp": "2025-12-10T18:56:59.729990+00:00", "meta": {"OBJECT_NAME": "GALAXY 33 (G-33)", "OBJECT_ID": "2022-128A", "EPOCH": "2025-12-10T08:01:38.590752", "MEAN_MOTION": 1.0027266, "ECCENTRICITY": 0.0002186, "INCLINATION": 0.0109, "RA_OF_ASC_NODE": 311.1958, "ARG_OF_PERICENTER": 298.6126, "MEAN_ANOMALY": 176.9205, "EPHEMERIS_TYPE": 0, "CLASSIFICATION_TYPE": "U", "NORAD_CAT_ID": 54026, "ELEMENT_SET_NO": 999, "REV_AT_EPOCH": 1184, "BSTAR": 0, "MEAN_MOTION_DOT": 8.2e-07, "MEAN_MOTION_DDOT": 0}, "tle": {"line1": "1 54026U 22128A   25344.33447443  .00000082  00000+0  00000+0 0  9990", "line2": "2 54026   0.0109 311.1958 0002186 298.6126 176.9205  1.00272660 11846"}}, "geometry": {"type": "Point", "coordinates": [-128.9943825561538, -0.026754319333916574]}}, {"type": "Feature", "properties": {"norad_id": 54027, "name": "GALAXY 34 (G-34)", "group": "intelsat", "lat": -0.04145276670154989, "lon": -124.92885649957331, "alt_km": 35780.941888680245, "timestamp": "2025-12-10T18:56:59.730002+00:00", "meta": {"OBJECT_NAME": "GALAXY 34 (G-34)", "OBJECT_ID": "2022-128B", "EPOCH": "2025-12-10T08:50:38.825088", "MEAN_MOTION": 1.00270694, "ECCENTRICITY": 0.0001332, "INCLINATION": 0.0236, "RA_OF_ASC_NODE": 329.8698, "ARG_OF_PERICENTER": 281.1372, "MEAN_ANOMALY": 192.0712, "EPHEMERIS_TYPE": 0, "CLASSIFICATION_TYPE": "U", "NORAD_CAT_ID": 54027, "ELEMENT_SET_NO": 999, "REV_AT_EPOCH": 1202, "BSTAR": 0, "MEAN_MOTION_DOT": 0, "MEAN_MOTION_DDOT": 0}, "tle": {"line1": "1 54027U 22128B   25344.36850492  .00000000  00000+0  00000+0 0  9996", "line2": "2 54027   0.0236 329.8698 0001332 281.1372 192.0712  1.00270694 12025"}}, "geometry": {"type": "Point", "coordinates": [-124.92885649957331, -0.04145276670154989]}}, {"type": "Feature", "properties": {"norad_id": 54243, "name": "GALAXY 31 (G-31)", "group": "intelsat", "lat": -0.01495323853104177, "lon": -116.99746962867131, "alt_km": 35778.998494417814, "timestamp": "2025-12-10T18:56:59.730013+00:00", "meta": {"OBJECT_NAME": "GALAXY 31 (G-31)", "OBJECT_ID": "2022-153A", "EPOCH": "2025-12-10T10:21:54.571104", "MEAN_MOTION": 1.00272283, "ECCENTRICITY": 0.0001864, "INCLINATION": 0.0163, "RA_OF_ASC_NODE": 257.0586, "ARG_OF_PERICENTER": 14.5968, "MEAN_ANOMALY": 202.236, "EPHEMERIS_TYPE": 0, "CLASSIFICATION_TYPE": "U", "NORAD_CAT_ID": 54243, "ELEMENT_SET_NO": 999, "REV_AT_EPOCH": 524, "BSTAR": 0, "MEAN_MOTION_DOT": 1.7e-07, "MEAN_MOTION_DDOT": 0}, "tle": {"line1": "1 54243U 22153A   25344.43188161  .00000017  00000+0  00000+0 0  9997", "line2": "2 54243   0.0163 257.0586 0001864  14.5968 202.2360  1.00272283  5246"}}, "geometry": {"type": "Point", "coordinates": [-116.99746962867131, -0.01495323853104177]}}, {"type": "Feature", "properties": {"norad_id": 54244, "name": "GALAXY 32 (G-32)", "group": "intelsat", "lat": -0.024479799385579353, "lon": -87.02083317272204, "alt_km": 35777.26281386008, "timestamp": "2025-12-10T18:56:59.730025+00:00", "meta": {"OBJECT_NAME": "GALAXY 32 (G-32)", "OBJECT_ID": "2022-153B", "EPOCH": "2025-12-09T19:59:19.033152", "MEAN_MOTION": 1.00270522, "ECCENTRICITY": 0.000271, "INCLINATION": 0.0091, "RA_OF_ASC_NODE": 335.3746, "ARG_OF_PERICENTER": 333.9234, "MEAN_ANOMALY": 338.3447, "EPHEMERIS_TYPE": 0, "CLASSIFICATION_TYPE": "U", "NORAD_CAT_ID": 54244, "ELEMENT_SET_NO": 999, "REV_AT_EPOCH": 1124, "BSTAR": 0, "MEAN_MOTION_DOT": -1.71e-06, "MEAN_MOTION_DDOT": 0}, "tle": {"line1": "1 54244U 22153B   25343.83285918 -.00000171  00000+0  00000+0 0  9991", "line2": "2 54244   0.0091 335.3746 0002710 333.9234 338.3447  1.00270522 11248"}}, "geometry": {"type": "Point", "coordinates": [-87.02083317272204, -0.024479799385579353]}}, {"type": "Feature", "properties": {"norad_id": 54741, "name": "GALAXY 35 (G-35)", "group": "intelsat", "lat": -0.015438877569195405, "lon": -89.08224600036313, "alt_km": 35775.31336374929, "timestamp": "2025-12-10T18:56:59.730037+00:00", "meta": {"OBJECT_NAME": "GALAXY 35 (G-35)", "OBJECT_ID": "2022-170A", "EPOCH": "2025-12-10T04:23:38.620896", "MEAN_MOTION": 1.00271022, "ECCENTRICITY": 0.00026129, "INCLINATION": 0.031, "RA_OF_ASC_NODE": 99.3994, "ARG_OF_PERICENTER": 166.4389, "MEAN_ANOMALY": 146.146, "EPHEMERIS_TYPE": 0, "CLASSIFICATION_TYPE": "U", "NORAD_CAT_ID": 54741, "ELEMENT_SET_NO": 999, "REV_AT_EPOCH": 1099, "BSTAR": 0, "MEAN_MOTION_DOT": -1.59e-06, "MEAN_MOTION_DDOT": 0}, "tle": {"line1": "1 54741U 22170A   25344.18308589 -.00000159  00000+0  00000+0 0  9997", "line2": "2 54741   0.0310  99.3994 0002612 166.4389 146.1460  1.00271022 10994"}}, "geometry": {"type": "Point", "coordinates": [-89.08224600036313, -0.015438877569195405]}}, {"type": "Feature", "properties": {"norad_id": 54742, "name": "GALAXY 36 (G-36)", "group": "intelsat", "lat": -0.023436113052698018, "lon": -85.0044681753833, "alt_km": 35784.23323319197, "timestamp": "2025-12-10T18:56:59.730048+00:00", "meta": {"OBJECT_NAME": "GALAXY 36 (G-36)", "OBJECT_ID": "2022-170B", "EPOCH": "2025-12-10T05:31:38.713152", "MEAN_MOTION": 1.00270681, "ECCENTRICITY": 5.4e-05, "INCLINATION": 0.0118, "RA_OF_ASC_NODE": 35.1013, "ARG_OF_PERICENTER": 255.8985, "MEAN_ANOMALY": 142.1142, "EPHEMERIS_TYPE": 0, "CLASSIFICATION_TYPE": "U", "NORAD_CAT_ID": 54742, "ELEMENT_SET_NO": 999, "REV_AT_EPOCH": 1087, "BSTAR": 0, "MEAN_MOTION_DOT": -1.82e-06, "MEAN_MOTION_DDOT": 0}, "tle": {"line1": "1 54742U 22170B   25344.23030918 -.00000182  00000+0  00000+0 0  9998", "line2": "2 54742   0.0118  35.1013 0000540 255.8985 142.1142  1.00270681 10874"}}, "geometry": {"type": "Point", "coordinates": [-85.0044681753833, -0.023436113052698018]}}, {"type": "Feature", "properties": {"norad_id": 57493, "name": "GALAXY 37 (G-37)", "group": "intelsat", "lat": -0.025107609370362226, "lon": -123.00189321169934, "alt_km": 35777.438479505836, "timestamp": "2025-12-10T18:56:59.730059+00:00", "meta": {"OBJECT_NAME": "GALAXY 37 (G-37)", "OBJECT_ID": "2023-112A", "EPOCH": "2025-12-10T08:50:38.825088", "MEAN_MOTION": 1.00272022, "ECCENTRICITY": 0.0002292, "INCLINATION": 0.0098, "RA_OF_ASC_NODE": 0.311, "ARG_OF_PERICENTER": 264.9289, "MEAN_ANOMALY": 179.7714, "EPHEMERIS_TYPE": 0, "CLASSIFICATION_TYPE": "U", "NORAD_CAT_ID": 57493, "ELEMENT_SET_NO": 999, "REV_AT_EPOCH": 865, "BSTAR": 0, "MEAN_MOTION_DOT": 5.2e-07, "MEAN_MOTION_DDOT": 0}, "tle": {"line1": "1 57493U 23112A   25344.36850492  .00000052  00000+0  00000+0 0  9997", "line2": "2 57493   0.0098   0.3110 0002292 264.9289 179.7714  1.00272022  8658"}}, "geometry": {"type": "Point", "coordinates": [-123.00189321169934, -0.025107609370362226]}}]}